[{"CCSDS_OMM_VERS":"2.0","COMMENT":"GENERATED VIA SPACE-TRACK.ORG API","CREATION_DATE":"2016-12-05T07:11:57","ORIGINATOR":"18 SPCS","OBJECT_NAME":"GALILEO-FM2","OBJECT_ID":"2011-060B","CENTER_NAME":"EARTH","REF_FRAME":"TEME","TIME_SYSTEM":"UTC","MEAN_ELEMENT_THEORY":"SGP4","EPOCH":"2016-12-04T23:42:06.309792","MEAN_MOTION":"1.70475868","ECCENTRICITY":"0.00035630","INCLINATION":"55.6809","RA_OF_ASC_NODE":"77.1574","ARG_OF_PERICENTER":"288.3533","MEAN_ANOMALY":"73.8100","EPHEMERIS_TYPE":"0","CLASSIFICATION_TYPE":"U","NORAD_CAT_ID":"37847","ELEMENT_SET_NO":"999","REV_AT_EPOCH":"3190","BSTAR":"0.00000000000000","MEAN_MOTION_DOT":"-0.00000022","MEAN_MOTION_DDOT":"0.0000000000000","SEMIMAJOR_AXIS":"29600.103","PERIOD":"844.694","APOAPSIS":"23232.515","PERIAPSIS":"23211.422","OBJECT_TYPE":"PAYLOAD","RCS_SIZE":"LARGE","COUNTRY_CODE":"ESA","LAUNCH_DATE":"2011-10-21","SITE":"FRGUI","DECAY_DATE":null,"FILE":"2122472","GP_ID":"108624066","TLE_LINE0":"0 GALILEO-FM2","TLE_LINE1":"1 37847U 11060B   16339.98757303 -.00000022  00000-0  00000+0 0  9995","TLE_LINE2":"2 37847  55.6809  77.1574 0003563 288.3533  73.8100  1.70475868 31902"},{"CCSDS_OMM_VERS":"2.0","COMMENT":"GENERATED VIA SPACE-TRACK.ORG API","CREATION_DATE":"2016-12-07T15:53:38","ORIGINATOR":"18 SPCS","OBJECT_NAME":"GALILEO-FM2","OBJECT_ID":"2011-060B","CENTER_NAME":"EARTH","REF_FRAME":"TEME","TIME_SYSTEM":"UTC","MEAN_ELEMENT_THEORY":"SGP4","EPOCH":"2016-12-06T18:01:09.528672","MEAN_MOTION":"1.70475812","ECCENTRICITY":"0.00036360","INCLINATION":"55.6821","RA_OF_ASC_NODE":"77.1078","ARG_OF_PERICENTER":"288.5592","MEAN_ANOMALY":"75.7480","EPHEMERIS_TYPE":"0","CLASSIFICATION_TYPE":"U","NORAD_CAT_ID":"37847","ELEMENT_SET_NO":"999","REV_AT_EPOCH":"3181","BSTAR":"0.00000000000000","MEAN_MOTION_DOT":"-0.00000025","MEAN_MOTION_DDOT":"0.0000000000000","SEMIMAJOR_AXIS":"29600.110","PERIOD":"844.694","APOAPSIS":"23232.737","PERIAPSIS":"23211.212","OBJECT_TYPE":"PAYLOAD","RCS_SIZE":"LARGE","COUNTRY_CODE":"ESA","LAUNCH_DATE":"2011-10-21","SITE":"FRGUI","DECAY_DATE":null,"FILE":"2123556","GP_ID":"108672287","TLE_LINE0":"0 GALILEO-FM2","TLE_LINE1":"1 37847U 11060B   16341.75080473 -.00000025 +00000-0 +00000-0 0  9994","TLE_LINE2":"2 37847 055.6821 077.1078 0003636 288.5592 075.7480 01.70475812031814"},{"CCSDS_OMM_VERS":"2.0","COMMENT":"GENERATED VIA SPACE-TRACK.ORG API","CREATION_DATE":"2016-12-13T15:14:32","ORIGINATOR":"18 SPCS","OBJECT_NAME":"GALILEO-FM2","OBJECT_ID":"2011-060B","CENTER_NAME":"EARTH","REF_FRAME":"TEME","TIME_SYSTEM":"UTC","MEAN_ELEMENT_THEORY":"SGP4","EPOCH":"2016-12-13T07:50:18.540672","MEAN_MOTION":"1.70475728","ECCENTRICITY":"0.00038950","INCLINATION":"55.6869","RA_OF_ASC_NODE":"76.9229","ARG_OF_PERICENTER":"289.1317","MEAN_ANOMALY":"150.9237","EPHEMERIS_TYPE":"0","CLASSIFICATION_TYPE":"U","NORAD_CAT_ID":"37847","ELEMENT_SET_NO":"999","REV_AT_EPOCH":"3204","BSTAR":"0.00000000000000","MEAN_MOTION_DOT":"-0.00000053","MEAN_MOTION_DDOT":"0.0000000000000","SEMIMAJOR_AXIS":"29600.120","PERIOD":"844.695","APOAPSIS":"23233.514","PERIAPSIS":"23210.455","OBJECT_TYPE":"PAYLOAD","RCS_SIZE":"LARGE","COUNTRY_CODE":"ESA","LAUNCH_DATE":"2011-10-21","SITE":"FRGUI","DECAY_DATE":null,"FILE":"2126187","GP_ID":"108774788","TLE_LINE0":"0 GALILEO-FM2","TLE_LINE1":"1 37847U 11060B   16348.32660348 -.00000053  00000-0  00000+0 0  9999","TLE_LINE2":"2 37847  55.6869  76.9229 0003895 289.1317 150.9237  1.70475728 32048"},{"CCSDS_OMM_VERS":"2.0","COMMENT":"GENERATED VIA SPACE-TRACK.ORG API","CREATION_DATE":"2016-12-17T15:18:44","ORIGINATOR":"18 SPCS","OBJECT_NAME":"GALILEO-FM2","OBJECT_ID":"2011-060B","CENTER_NAME":"EARTH","REF_FRAME":"TEME","TIME_SYSTEM":"UTC","MEAN_ELEMENT_THEORY":"SGP4","EPOCH":"2016-12-17T08:11:58.662816","MEAN_MOTION":"1.70475803","ECCENTRICITY":"0.00040710","INCLINATION":"55.6896","RA_OF_ASC_NODE":"76.8100","ARG_OF_PERICENTER":"289.4241","MEAN_ANOMALY":"94.7762","EPHEMERIS_TYPE":"0","CLASSIFICATION_TYPE":"U","NORAD_CAT_ID":"37847","ELEMENT_SET_NO":"999","REV_AT_EPOCH":"3211","BSTAR":"0.00000000000000","MEAN_MOTION_DOT":"-0.00000057","MEAN_MOTION_DDOT":"0.0000000000000","SEMIMAJOR_AXIS":"29600.111","PERIOD":"844.694","APOAPSIS":"23234.026","PERIAPSIS":"23209.926","OBJECT_TYPE":"PAYLOAD","RCS_SIZE":"LARGE","COUNTRY_CODE":"ESA","LAUNCH_DATE":"2011-10-21","SITE":"FRGUI","DECAY_DATE":null,"FILE":"2127867","GP_ID":"108845615","TLE_LINE0":"0 GALILEO-FM2","TLE_LINE1":"1 37847U 11060B   16352.34165119 -.00000057  00000-0  00000+0 0  9996","TLE_LINE2":"2 37847  55.6896  76.8100 0004071 289.4241  94.7762  1.70475803 32111"},{"CCSDS_OMM_VERS":"2.0","COMMENT":"GENERATED VIA SPACE-TRACK.ORG API","CREATION_DATE":"2016-12-20T15:20:30","ORIGINATOR":"18 SPCS","OBJECT_NAME":"GALILEO-FM2","OBJECT_ID":"2011-060B","CENTER_NAME":"EARTH","REF_FRAME":"TEME","TIME_SYSTEM":"UTC","MEAN_ELEMENT_THEORY":"SGP4","EPOCH":"2016-12-20T07:23:55.854240","MEAN_MOTION":"1.70475888","ECCENTRICITY":"0.00041890","INCLINATION":"55.6916","RA_OF_ASC_NODE":"76.7266","ARG_OF_PERICENTER":"289.5884","MEAN_ANOMALY":"115.3168","EPHEMERIS_TYPE":"0","CLASSIFICATION_TYPE":"U","NORAD_CAT_ID":"37847","ELEMENT_SET_NO":"999","REV_AT_EPOCH":"3216","BSTAR":"0.00000000000000","MEAN_MOTION_DOT":"-0.00000067","MEAN_MOTION_DDOT":"0.0000000000000","SEMIMAJOR_AXIS":"29600.101","PERIOD":"844.694","APOAPSIS":"23234.365","PERIAPSIS":"23209.567","OBJECT_TYPE":"PAYLOAD","RCS_SIZE":"LARGE","COUNTRY_CODE":"ESA","LAUNCH_DATE":"2011-10-21","SITE":"FRGUI","DECAY_DATE":null,"FILE":"2129027","GP_ID":"108898562","TLE_LINE0":"0 GALILEO-FM2","TLE_LINE1":"1 37847U 11060B   16355.30828535 -.00000067  00000-0  00000+0 0  9994","TLE_LINE2":"2 37847  55.6916  76.7266 0004189 289.5884 115.3168  1.70475888 32168"},{"CCSDS_OMM_VERS":"2.0","COMMENT":"GENERATED VIA SPACE-TRACK.ORG API","CREATION_DATE":"2016-12-22T17:24:23","ORIGINATOR":"18 SPCS","OBJECT_NAME":"GALILEO-FM2","OBJECT_ID":"2011-060B","CENTER_NAME":"EARTH","REF_FRAME":"TEME","TIME_SYSTEM":"UTC","MEAN_ELEMENT_THEORY":"SGP4","EPOCH":"2016-12-21T09:48:14.064768","MEAN_MOTION":"1.70475921","ECCENTRICITY":"0.00042290","INCLINATION":"55.6924","RA_OF_ASC_NODE":"76.6957","ARG_OF_PERICENTER":"289.5823","MEAN_ANOMALY":"70.5528","EPHEMERIS_TYPE":"0","CLASSIFICATION_TYPE":"U","NORAD_CAT_ID":"37847","ELEMENT_SET_NO":"999","REV_AT_EPOCH":"3206","BSTAR":"0.00000000000000","MEAN_MOTION_DOT":"-0.00000069","MEAN_MOTION_DDOT":"0.0000000000000","SEMIMAJOR_AXIS":"29600.097","PERIOD":"844.694","APOAPSIS":"23234.480","PERIAPSIS":"23209.444","OBJECT_TYPE":"PAYLOAD","RCS_SIZE":"LARGE","COUNTRY_CODE":"ESA","LAUNCH_DATE":"2011-10-21","SITE":"FRGUI","DECAY_DATE":null,"FILE":"2129988","GP_ID":"108943729","TLE_LINE0":"0 GALILEO-FM2","TLE_LINE1":"1 37847U 11060B   16356.40849612 -.00000069 +00000-0 +00000-0 0  9998","TLE_LINE2":"2 37847 055.6924 076.6957 0004229 289.5823 070.5528 01.70475921032060"},{"CCSDS_OMM_VERS":"2.0","COMMENT":"GENERATED VIA SPACE-TRACK.ORG API","CREATION_DATE":"2016-12-28T15:22:50","ORIGINATOR":"18 SPCS","OBJECT_NAME":"GALILEO-FM2","OBJECT_ID":"2011-060B","CENTER_NAME":"EARTH","REF_FRAME":"TEME","TIME_SYSTEM":"UTC","MEAN_ELEMENT_THEORY":"SGP4","EPOCH":"2016-12-28T10:56:53.054304","MEAN_MOTION":"1.70475977","ECCENTRICITY":"0.00045620","INCLINATION":"55.6962","RA_OF_ASC_NODE":"76.4977","ARG_OF_PERICENTER":"290.2011","MEAN_ANOMALY":"75.2857","EPHEMERIS_TYPE":"0","CLASSIFICATION_TYPE":"U","NORAD_CAT_ID":"37847","ELEMENT_SET_NO":"999","REV_AT_EPOCH":"3230","BSTAR":"0.00000000000000","MEAN_MOTION_DOT":"-0.00000047","MEAN_MOTION_DDOT":"0.0000000000000","SEMIMAJOR_AXIS":"29600.091","PERIOD":"844.693","APOAPSIS":"23235.459","PERIAPSIS":"23208.452","OBJECT_TYPE":"PAYLOAD","RCS_SIZE":"LARGE","COUNTRY_CODE":"ESA","LAUNCH_DATE":"2011-10-21","SITE":"FRGUI","DECAY_DATE":null,"FILE":"2132403","GP_ID":"109044779","TLE_LINE0":"0 GALILEO-FM2","TLE_LINE1":"1 37847U 11060B   16363.45616961 -.00000047  00000-0  00000+0 0  9995","TLE_LINE2":"2 37847  55.6962  76.4977 0004562 290.2011  75.2857  1.70475977 32305"},{"CCSDS_OMM_VERS":"2.0","COMMENT":"GENERATED VIA SPACE-TRACK.ORG API","CREATION_DATE":"2016-12-29T16:14:46","ORIGINATOR":"18 SPCS","OBJECT_NAME":"GALILEO-FM2","OBJECT_ID":"2011-060B","CENTER_NAME":"EARTH","REF_FRAME":"TEME","TIME_SYSTEM":"UTC","MEAN_ELEMENT_THEORY":"SGP4","EPOCH":"2016-12-28T15:13:45.265152","MEAN_MOTION":"1.70475984","ECCENTRICITY":"0.00045100","INCLINATION":"55.6977","RA_OF_ASC_NODE":"76.4928","ARG_OF_PERICENTER":"290.0539","MEAN_ANOMALY":"184.9116","EPHEMERIS_TYPE":"0","CLASSIFICATION_TYPE":"U","NORAD_CAT_ID":"37847","ELEMENT_SET_NO":"999","REV_AT_EPOCH":"3218","BSTAR":"0.00000000000000","MEAN_MOTION_DOT":"-0.00000046","MEAN_MOTION_DDOT":"0.0000000000000","SEMIMAJOR_AXIS":"29600.090","PERIOD":"844.693","APOAPSIS":"23235.305","PERIAPSIS":"23208.605","OBJECT_TYPE":"PAYLOAD","RCS_SIZE":"LARGE","COUNTRY_CODE":"ESA","LAUNCH_DATE":"2011-10-21","SITE":"FRGUI","DECAY_DATE":null,"FILE":"2132961","GP_ID":"109072179","TLE_LINE0":"0 GALILEO-FM2","TLE_LINE1":"1 37847U 11060B   16363.63455168 -.00000046 +00000-0 +00000-0 0  9995","TLE_LINE2":"2 37847 055.6977 076.4928 0004510 290.0539 184.9116 01.70475984032183"}]